{"type": "FeatureCollection", "features": [ {"type": "Feature", "properties": {"norad_id": 30061, "name": "FENGYUN 1C DEB", "group": "fengyun-1c-debris", "lat": 21.588597714076247, "lon": -70.94058934320306, "alt_km": 1015.6194383837556, "timestamp": "2025-12-19T08:58:49.611702+00:00", "meta": {"OBJECT_NAME": "FENGYUN 1C DEB", "OBJECT_ID": "1999-025PN", "EPOCH": "2025-12-18T22:04:25.327776", "MEAN_MOTION": 13.46483107, "ECCENTRICITY": 0.0373161, "INCLINATION": 101.8756, "RA_OF_ASC_NODE": 103.745, "ARG_OF_PERICENTER": 236.5522, "MEAN_ANOMALY": 243.5815, "EPHEMERIS_TYPE": 0, "CLASSIFICATION_TYPE": "U", "NORAD_CAT_ID": 30061, "ELEMENT_SET_NO": 999, "REV_AT_EPOCH": 92182, "BSTAR": 0.0026724099, "MEAN_MOTION_DOT": 2.396e-05, "MEAN_MOTION_DDOT": 0}, "tle": {"line1": "1 30061U 99025PN  25352.91973759  .00002396  00000+0  26724-2 0  9994", "line2": "2 30061 101.8756 103.7450 0373161 236.5522 243.5815 13.46483107921823"}}, "geometry": {"type": "Point", "coordinates": [-70.94058934320306, 21.588597714076247]}}, {"type": "Feature", "properties": {"norad_id": 30062, "name": "FENGYUN 1C DEB", "group": "fengyun-1c-debris", "lat": 65.45545520111096, "lon": -157.84730691258287, "alt_km": 858.4153934424094, "timestamp": "2025-12-19T08:58:49.611713+00:00", "meta": {"OBJECT_NAME": "FENGYUN 1C DEB", "OBJECT_ID": "1999-025PP", "EPOCH": "2025-12-18T14:14:51.691776", "MEAN_MOTION": 14.0712067, "ECCENTRICITY": 0.00493081, "INCLINATION": 98.7805, "RA_OF_ASC_NODE": 1.6124, "ARG_OF_PERICENTER": 31.9592, "MEAN_ANOMALY": 88.7566, "EPHEMERIS_TYPE": 0, "CLASSIFICATION_TYPE": "U", "NORAD_CAT_ID": 30062, "ELEMENT_SET_NO": 999, "REV_AT_EPOCH": 96990, "BSTAR": 0.00026291089, "MEAN_MOTION_DOT": 4.02e-06, "MEAN_MOTION_DDOT": 0}, "tle": {"line1": "1 30062U 99025PP  25352.59365384  .00000402  00000+0  26291-3 0  9994", "line2": "2 30062  98.7805   1.6124 0049308  31.9592  88.7566 14.07120670969908"}}, "geometry": {"type": "Point", "coordinates": [-157.84730691258287, 65.45545520111096]}}, {"type": "Feature", "properties": {"norad_id": 30063, "name": "FENGYUN 1C DEB", "group": "fengyun-1c-debris", "lat": -32.46513499953299, "lon": -22.628814120052745, "alt_km": 866.6780152194033, "timestamp": "2025-12-19T08:58:49.611723+00:00", "meta": {"OBJECT_NAME": "FENGYUN 1C DEB", "OBJECT_ID": "1999-025PQ", "EPOCH": "2025-12-18T21:33:52.070976", "MEAN_MOTION": 14.15613716, "ECCENTRICITY": 0.00332208, "INCLINATION": 98.5218, "RA_OF_ASC_NODE": 331.4426, "ARG_OF_PERICENTER": 116.9675, "MEAN_ANOMALY": 307.7372, "EPHEMERIS_TYPE": 0, "CLASSIFICATION_TYPE": "U", "NORAD_CAT_ID": 30063, "ELEMENT_SET_NO": 999, "REV_AT_EPOCH": 97752, "BSTAR": 6.1886965e-05, "MEAN_MOTION_DOT": 8.1e-07, "MEAN_MOTION_DDOT": 0}, "tle": {"line1": "1 30063U 99025PQ  25352.89851934  .00000081  00000+0  61887-4 0  9993", "line2": "2 30063  98.5218 331.4426 0033220 116.9675 307.7372 14.15613716977529"}}, "geometry": {"type": "Point", "coordinates": [-22.628814120052745, -32.46513499953299]}}, {"type": "Feature", "properties": {"norad_id": 30064, "name": "FENGYUN 1C DEB", "group": "fengyun-1c-debris", "lat": 58.90756363668645, "lon": -10.416711885525114, "alt_km": 798.387749274304, "timestamp": "2025-12-19T08:58:49.611732+00:00", "meta": {"OBJECT_NAME": "FENGYUN 1C DEB", "OBJECT_ID": "1999-025PR", "EPOCH": "2025-12-18T22:47:59.167104", "MEAN_MOTION": 14.14273728, "ECCENTRICITY": 0.00666916, "INCLINATION": 98.6613, "RA_OF_ASC_NODE": 3.8127, "ARG_OF_PERICENTER": 93.9262, "MEAN_ANOMALY": 328.0329, "EPHEMERIS_TYPE": 0, "CLASSIFICATION_TYPE": "U", "NORAD_CAT_ID": 30064, "ELEMENT_SET_NO": 999, "REV_AT_EPOCH": 97593, "BSTAR": 0.00014879441, "MEAN_MOTION_DOT": 2.48e-06, "MEAN_MOTION_DDOT": 0}, "tle": {"line1": "1 30064U 99025PR  25352.94999036  .00000248  00000+0  14879-3 0  9999", "line2": "2 30064  98.6613   3.8127 0066691  93.9262 328.0329 14.14273728975937"}}, "geometry": {"type": "Point", "coordinates": [-10.416711885525114, 58.90756363668645]}}, {"type": "Feature", "properties": {"norad_id": 30065, "name": "FENGYUN 1C DEB", "group": "fengyun-1c-debris", "lat": 80.16383957697636, "lon": -96.09637715575157, "alt_km": 900.8652155856826, "timestamp": "2025-12-19T08:58:49.611742+00:00", "meta": {"OBJECT_NAME": "FENGYUN 1C DEB", "OBJECT_ID": "1999-025PS", "EPOCH": "2025-12-18T20:27:33.331968", "MEAN_MOTION": 13.8691846, "ECCENTRICITY": 0.01314331, "INCLINATION": 98.6847, "RA_OF_ASC_NODE": 325.2484, "ARG_OF_PERICENTER": 14.9956, "MEAN_ANOMALY": 345.5042, "EPHEMERIS_TYPE": 0, "CLASSIFICATION_TYPE": "U", "NORAD_CAT_ID": 30065, "ELEMENT_SET_NO": 999, "REV_AT_EPOCH": 95756, "BSTAR": 0.00014305091, "MEAN_MOTION_DOT": 1.39e-06, "MEAN_MOTION_DDOT": 0}, "tle": {"line1": "1 30065U 99025PS  25352.85246912  .00000139  00000+0  14305-3 0  9991", "line2": "2 30065  98.6847 325.2484 0131433  14.9956 345.5042 13.86918460957566"}}, "geometry": {"type": "Point", "coordinates": [-96.09637715575157, 80.16383957697636]}}, {"type": "Feature", "properties": {"norad_id": 30066, "name": "FENGYUN 1C DEB", "group": "fengyun-1c-debris", "lat": 2.163608260847852, "lon": -16.690588710561265, "alt_km": 871.9355699561584, "timestamp": "2025-12-19T08:58:49.611753+00:00", "meta": {"OBJECT_NAME": "FENGYUN 1C DEB", "OBJECT_ID": "1999-025PT", "EPOCH": "2025-12-18T23:04:52.461120", "MEAN_MOTION": 14.1911401, "ECCENTRICITY": 0.01167654, "INCLINATION": 98.6344, "RA_OF_ASC_NODE": 343.2364, "ARG_OF_PERICENTER": 243.7912, "MEAN_ANOMALY": 171.32, "EPHEMERIS_TYPE": 0, "CLASSIFICATION_TYPE": "U", "NORAD_CAT_ID": 30066, "ELEMENT_SET_NO": 999, "REV_AT_EPOCH": 97925, "BSTAR": 0.00012774548, "MEAN_MOTION_DOT": 2.42e-06, "MEAN_MOTION_DDOT": 0}, "tle": {"line1": "1 30066U 99025PT  25352.96171830  .00000242  00000+0  12775-3 0  9994", "line2": "2 30066  98.6344 343.2364 0116765 243.7912 171.3200 14.19114010979258"}}, "geometry": {"type": "Point", "coordinates": [-16.690588710561265, 2.163608260847852]}}, {"type": "Feature", "properties": {"norad_id": 30067, "name": "FENGYUN 1C DEB", "group": "fengyun-1c-debris", "lat": 28.217260445186298, "lon": 64.405306868518, "alt_km": 840.8831203845357, "timestamp": "2025-12-19T08:58:49.611763+00:00", "meta": {"OBJECT_NAME": "FENGYUN 1C DEB", "OBJECT_ID": "1999-025PU", "EPOCH": "2025-12-18T15:53:47.320800", "MEAN_MOTION": 14.43703722, "ECCENTRICITY": 0.01515614, "INCLINATION": 98.7657, "RA_OF_ASC_NODE": 238.9232, "ARG_OF_PERICENTER": 0.4505, "MEAN_ANOMALY": 52.5705, "EPHEMERIS_TYPE": 0, "CLASSIFICATION_TYPE": "U", "NORAD_CAT_ID": 30067, "ELEMENT_SET_NO": 999, "REV_AT_EPOCH": 99284, "BSTAR": 0.00031427251, "MEAN_MOTION_DOT": 1.173e-05, "MEAN_MOTION_DDOT": 0}, "tle": {"line1": "1 30067U 99025PU  25352.66235325  .00001173  00000+0  31427-3 0  9991", "line2": "2 30067  98.7657 238.9232 0151561   0.4505  52.5705 14.43703722992841"}}, "geometry": {"type": "Point", "coordinates": [64.405306868518, 28.217260445186298]}}, {"type": "Feature", "properties": {"norad_id": 30068, "name": "FENGYUN 1C DEB", "group": "fengyun-1c-debris", "lat": -3.7431860297060924, "lon": -18.406370320205788, "alt_km": 732.3285321977728, "timestamp": "2025-12-19T08:58:49.611773+00:00", "meta": {"OBJECT_NAME": "FENGYUN 1C DEB", "OBJECT_ID": "1999-025PV", "EPOCH": "2025-12-18T22:47:39.510240", "MEAN_MOTION": 14.12053134, "ECCENTRICITY": 0.0189674, "INCLINATION": 98.7368, "RA_OF_ASC_NODE": 340.6034, "ARG_OF_PERICENTER": 331.1709, "MEAN_ANOMALY": 27.9085, "EPHEMERIS_TYPE": 0, "CLASSIFICATION_TYPE": "U", "NORAD_CAT_ID": 30068, "ELEMENT_SET_NO": 999, "REV_AT_EPOCH": 97431, "BSTAR": 0.00016196894, "MEAN_MOTION_DOT": 3.07e-06, "MEAN_MOTION_DDOT": 0}, "tle": {"line1": "1 30068U 99025PV  25352.94976285  .00000307  00000+0  16197-3 0  9995", "line2": "2 30068  98.7368 340.6034 0189674 331.1709  27.9085 14.12053134974318"}}, "geometry": {"type": "Point", "coordinates": [-18.406370320205788, -3.7431860297060924]}}, {"type": "Feature", "properties": {"norad_id": 30069, "name": "FENGYUN 1C DEB", "group": "fengyun-1c-debris", "lat": -80.21112006195914, "lon": 38.92467344540147, "alt_km": 901.205855954905, "timestamp": "2025-12-19T08:58:49.611783+00:00", "meta": {"OBJECT_NAME": "FENGYUN 1C DEB", "OBJECT_ID": "1999-025PW", "EPOCH": "2025-12-18T21:31:07.321728", "MEAN_MOTION": 14.05228832, "ECCENTRICITY": 0.00496277, "INCLINATION": 98.8016, "RA_OF_ASC_NODE": 334.5633, "ARG_OF_PERICENTER": 36.1337, "MEAN_ANOMALY": 344.0386, "EPHEMERIS_TYPE": 0, "CLASSIFICATION_TYPE": "U", "NORAD_CAT_ID": 30069, "ELEMENT_SET_NO": 999, "REV_AT_EPOCH": 96933, "BSTAR": 0.000329847, "MEAN_MOTION_DOT": 4.96e-06, "MEAN_MOTION_DDOT": 0}, "tle": {"line1": "1 30069U 99025PW  25352.89661252  .00000496  00000+0  32985-3 0  9997", "line2": "2 30069  98.8016 334.5633 0049627  36.1337 344.0386 14.05228832969333"}}, "geometry": {"type": "Point", "coordinates": [38.92467344540147, -80.21112006195914]}}, {"type": "Feature", "properties": {"norad_id": 30070, "name": "FENGYUN 1C DEB", "group": "fengyun-1c-debris", "lat": 6.285826506040943, "lon": -126.58189888240422, "alt_km": 997.0079920192311, "timestamp": "2025-12-19T08:58:49.611793+00:00", "meta": {"OBJECT_NAME": "FENGYUN 1C DEB", "OBJECT_ID": "1999-025PX", "EPOCH": "2025-12-18T15:51:08.582400", "MEAN_MOTION": 14.09958633, "ECCENTRICITY": 0.03279548, "INCLINATION": 98.2863, "RA_OF_ASC_NODE": 51.8395, "ARG_OF_PERICENTER": 301.9023, "MEAN_ANOMALY": 214.2688, "EPHEMERIS_TYPE": 0, "CLASSIFICATION_TYPE": "U", "NORAD_CAT_ID": 30070, "ELEMENT_SET_NO": 999, "REV_AT_EPOCH": 95962, "BSTAR": 0.0011680441, "MEAN_MOTION_DOT": 3.353e-05, "MEAN_MOTION_DDOT": 0}, "tle": {"line1": "1 30070U 99025PX  25352.66051600  .00003353  00000+0  11680-2 0  9997", "line2": "2 30070  98.2863  51.8395 0327954 301.9023 214.2688 14.09958633959627"}}, "geometry": {"type": "Point", "coordinates": [-126.58189888240422, 6.285826506040943]}}]}